start=new Date('2022-03-28T00:00:00.000Z').valueOf();
sats=[{"APOAPSIS":"548.267","SITE":"AFETR","EPHEMERIS_TYPE":"0","MEAN_ANOMALY":"292.5090","TLE_LINE2":"2 45234  53.0574  43.6367 0001513  67.6059 292.5090 15.06398095117345","TLE_LINE1":"1 45234U 20012BJ  22086.87902046  .00001642  00000-0  12912-3 0  9998","SEMIMAJOR_AXIS":"6925.354","BSTAR":"0.00012912000000","DECAY_DATE":null,"MEAN_MOTION_DDOT":"0.0000000000000","FILE":"3377053","ARG_OF_PERICENTER":"67.6059","OBJECT_TYPE":"PAYLOAD","LAUNCH_DATE":"2020-02-17","NORAD_CAT_ID":"45234","TIME_SYSTEM":"UTC","EPOCH":"2022-03-27T21:05:47.367744","RCS_SIZE":"LARGE","OBJECT_ID":"2020-012BJ","RA_OF_ASC_NODE":"43.6367","PERIAPSIS":"546.172","ECCENTRICITY":"0.00015130","REF_FRAME":"TEME","OBJECT_NAME":"STARLINK-1243","REV_AT_EPOCH":"11734","ELEMENT_SET_NO":"999","PERIOD":"95.592","MEAN_ELEMENT_THEORY":"SGP4","MEAN_MOTION_DOT":"0.00001642","CENTER_NAME":"EARTH","COUNTRY_CODE":"US","INCLINATION":"53.0574","MEAN_MOTION":"15.06398095","GP_ID":"199861591","CLASSIFICATION_TYPE":"U"},{"EPHEMERIS_TYPE":"0","APOAPSIS":"548.658","SITE":"AFETR","MEAN_MOTION_DDOT":"0.0000000000000","DECAY_DATE":null,"BSTAR":"0.00004879500000","SEMIMAJOR_AXIS":"6925.375","TLE_LINE2":"2 45235  53.0549  43.7140 0002048  58.7854 301.3336 15.06391341117390","TLE_LINE1":"1 45235U 20012BK  22086.86428413  .00000445  00000-0  48795-4 0  9998","MEAN_ANOMALY":"301.3336","LAUNCH_DATE":"2020-02-17","OBJECT_TYPE":"PAYLOAD","FILE":"3377053","ARG_OF_PERICENTER":"58.7854","OBJECT_ID":"2020-012BK","RCS_SIZE":"LARGE","EPOCH":"2022-03-27T20:44:34.148832","TIME_SYSTEM":"UTC","NORAD_CAT_ID":"45235","MEAN_MOTION_DOT":"0.00000445","MEAN_ELEMENT_THEORY":"SGP4","PERIOD":"95.593","ELEMENT_SET_NO":"999","REV_AT_EPOCH":"11739","OBJECT_NAME":"STARLINK-1246","PERIAPSIS":"545.822","RA_OF_ASC_NODE":"43.7140","REF_FRAME":"TEME","ECCENTRICITY":"0.00020480","GP_ID":"199861828","MEAN_MOTION":"15.06391341","INCLINATION":"53.0549","CENTER_NAME":"EARTH","COUNTRY_CODE":"US","CLASSIFICATION_TYPE":"U"},{"GP_ID":"199860590","MEAN_MOTION":"15.06403164","INCLINATION":"53.0548","COUNTRY_CODE":"US","CENTER_NAME":"EARTH","MEAN_MOTION_DOT":"0.00001073","MEAN_ELEMENT_THEORY":"SGP4","PERIOD":"95.592","ELEMENT_SET_NO":"999","REV_AT_EPOCH":"11793","OBJECT_NAME":"STARLINK-1247","PERIAPSIS":"545.855","REF_FRAME":"TEME","RA_OF_ASC_NODE":"3.4893","ECCENTRICITY":"0.00019480","CLASSIFICATION_TYPE":"U","MEAN_MOTION_DDOT":"0.0000000000000","DECAY_DATE":null,"BSTAR":"0.00009092600000","SEMIMAJOR_AXIS":"6925.339","MEAN_ANOMALY":"310.8675","TLE_LINE2":"2 45236  53.0548   3.4893 0001948  49.2482 310.8675 15.06403164117936","TLE_LINE1":"1 45236U 20012BL  22086.91219958  .00001073  00000-0  90926-4 0  9998","EPHEMERIS_TYPE":"0","SITE":"AFETR","APOAPSIS":"548.553","OBJECT_ID":"2020-012BL","RCS_SIZE":"LARGE","EPOCH":"2022-03-27T21:53:34.043712","TIME_SYSTEM":"UTC","NORAD_CAT_ID":"45236","LAUNCH_DATE":"2020-02-17","OBJECT_TYPE":"PAYLOAD","ARG_OF_PERICENTER":"49.2482","FILE":"3377053"},{"MEAN_MOTION_DDOT":"0.0000000000000","DECAY_DATE":null,"BSTAR":"0.00115620000000","SEMIMAJOR_AXIS":"6925.300","TLE_LINE2":"2 45237  53.0546   3.4163 0001971  56.2537 303.8640 15.06415824117941","MEAN_ANOMALY":"303.8640","TLE_LINE1":"1 45237U 20012BM  22086.93433016  .00016989  00000-0  11562-2 0  9993","EPHEMERIS_TYPE":"0","APOAPSIS":"548.530","SITE":"AFETR","OBJECT_ID":"2020-012BM","EPOCH":"2022-03-27T22:25:26.125824","RCS_SIZE":"LARGE","TIME_SYSTEM":"UTC","NORAD_CAT_ID":"45237","LAUNCH_DATE":"2020-02-17","OBJECT_TYPE":"PAYLOAD","ARG_OF_PERICENTER":"56.2537","FILE":"3377053","GP_ID":"199860840","MEAN_MOTION":"15.06415824","INCLINATION":"53.0546","COUNTRY_CODE":"US","CENTER_NAME":"EARTH","MEAN_MOTION_DOT":"0.00016989","PERIOD":"95.591","MEAN_ELEMENT_THEORY":"SGP4","ELEMENT_SET_NO":"999","OBJECT_NAME":"STARLINK-1270","REV_AT_EPOCH":"11794","PERIAPSIS":"545.800","RA_OF_ASC_NODE":"3.4163","ECCENTRICITY":"0.00019710","REF_FRAME":"TEME","CLASSIFICATION_TYPE":"U"},{"OBJECT_ID":"2020-019A","RCS_SIZE":"LARGE","EPOCH":"2022-03-27T11:52:27.892992","TIME_SYSTEM":"UTC","NORAD_CAT_ID":"45360","LAUNCH_DATE":"2020-03-18","OBJECT_TYPE":"PAYLOAD","FILE":"3376641","ARG_OF_PERICENTER":"63.7216","MEAN_MOTION_DDOT":"0.0000000000000","DECAY_DATE":null,"BSTAR":"0.00000973330000","SEMIMAJOR_AXIS":"6925.379","MEAN_ANOMALY":"296.3922","TLE_LINE2":"2 45360  53.0542 135.3721 0001442  63.7216 296.3922 15.06390119112616","TLE_LINE1":"1 45360U 20019A   22086.49476728 -.00000137  00000-0  97333-5 0  9997","EPHEMERIS_TYPE":"0","APOAPSIS":"548.242","SITE":"AFETR","CLASSIFICATION_TYPE":"U","GP_ID":"199825978","MEAN_MOTION":"15.06390119","INCLINATION":"53.0542","CENTER_NAME":"EARTH","COUNTRY_CODE":"US","MEAN_MOTION_DOT":"-0.00000137","MEAN_ELEMENT_THEORY":"SGP4","PERIOD":"95.593","ELEMENT_SET_NO":"999","REV_AT_EPOCH":"11261","OBJECT_NAME":"STARLINK-1279","PERIAPSIS":"546.245","ECCENTRICITY":"0.00014420","RA_OF_ASC_NODE":"135.3721","REF_FRAME":"TEME"},{"TLE_LINE2":"2 45361  53.0535 143.6393 0001564  66.8755 293.2399 15.06403364112546","MEAN_ANOMALY":"293.2399","TLE_LINE1":"1 45361U 20019B   22086.88087082  .00004382  00000-0  31287-3 0  9991","SEMIMAJOR_AXIS":"6925.338","BSTAR":"0.00031287000000","DECAY_DATE":null,"MEAN_MOTION_DDOT":"0.0000000000000","APOAPSIS":"548.286","SITE":"AFETR","EPHEMERIS_TYPE":"0","NORAD_CAT_ID":"45361","TIME_SYSTEM":"UTC","RCS_SIZE":"LARGE","EPOCH":"2022-03-27T21:08:27.238848","OBJECT_ID":"2020-019B","ARG_OF_PERICENTER":"66.8755","FILE":"3377053","OBJECT_TYPE":"PAYLOAD","LAUNCH_DATE":"2020-03-18","CENTER_NAME":"EARTH","COUNTRY_CODE":"US","INCLINATION":"53.0535","MEAN_MOTION":"15.06403364","GP_ID":"199860354","REF_FRAME":"TEME","PERIAPSIS":"546.120","RA_OF_ASC_NODE":"143.6393","ECCENTRICITY":"0.00015640","OBJECT_NAME":"STARLINK-1301","REV_AT_EPOCH":"11254","ELEMENT_SET_NO":"999","PERIOD":"95.592","MEAN_ELEMENT_THEORY":"SGP4","MEAN_MOTION_DOT":"0.00004382","CLASSIFICATION_TYPE":"U"},{"CLASSIFICATION_TYPE":"U","CENTER_NAME":"EARTH","COUNTRY_CODE":"US","INCLINATION":"53.0543","GP_ID":"199861605","MEAN_MOTION":"15.06392557","OBJECT_NAME":"STARLINK-1306","REV_AT_EPOCH":"11223","ECCENTRICITY":"0.00015160","PERIAPSIS":"546.186","RA_OF_ASC_NODE":"164.3236","REF_FRAME":"TEME","PERIOD":"95.593","MEAN_ELEMENT_THEORY":"SGP4","ELEMENT_SET_NO":"999","MEAN_MOTION_DOT":"0.00000933","TIME_SYSTEM":"UTC","NORAD_CAT_ID":"45362","EPOCH":"2022-03-27T17:28:11.427456","RCS_SIZE":"LARGE","OBJECT_ID":"2020-019C","ARG_OF_PERICENTER":"62.3744","FILE":"3377053","OBJECT_TYPE":"PAYLOAD","LAUNCH_DATE":"2020-03-18","SEMIMAJOR_AXIS":"6925.371","MEAN_ANOMALY":"297.7399","TLE_LINE2":"2 45362  53.0543 164.3236 0001516  62.3744 297.7399 15.06392557112234","TLE_LINE1":"1 45362U 20019C   22086.72791004  .00000933  00000-0  81512-4 0  9996","DECAY_DATE":null,"BSTAR":"0.00008151200000","MEAN_MOTION_DDOT":"0.0000000000000","SITE":"AFETR","APOAPSIS":"548.286","EPHEMERIS_TYPE":"0"},{"MEAN_MOTION":"15.06398197","GP_ID":"199861842","INCLINATION":"53.0536","CENTER_NAME":"EARTH","COUNTRY_CODE":"US","MEAN_MOTION_DOT":"0.00000692","ELEMENT_SET_NO":"999","PERIOD":"95.592","MEAN_ELEMENT_THEORY":"SGP4","PERIAPSIS":"546.175","REF_FRAME":"TEME","RA_OF_ASC_NODE":"134.7987","ECCENTRICITY":"0.00015070","OBJECT_NAME":"STARLINK-1313","REV_AT_EPOCH":"11263","CLASSIFICATION_TYPE":"U","MEAN_MOTION_DDOT":"0.0000000000000","BSTAR":"0.00006538100000","DECAY_DATE":null,"MEAN_ANOMALY":"303.2721","TLE_LINE2":"2 45364  53.0536 134.7987 0001507  56.8413 303.2721 15.06398197112635","TLE_LINE1":"1 45364U 20019E   22086.62377198  .00000692  00000-0  65381-4 0  9999","SEMIMAJOR_AXIS":"6925.354","EPHEMERIS_TYPE":"0","SITE":"AFETR","APOAPSIS":"548.263","OBJECT_ID":"2020-019E","EPOCH":"2022-03-27T14:58:13.899072","RCS_SIZE":"LARGE","NORAD_CAT_ID":"45364","TIME_SYSTEM":"UTC","LAUNCH_DATE":"2020-03-18","OBJECT_TYPE":"PAYLOAD","FILE":"3377053","ARG_OF_PERICENTER":"56.8413"},{"EPHEMERIS_TYPE":"0","APOAPSIS":"550.824","SITE":"AFETR","MEAN_MOTION_DDOT":"0.0000000000000","BSTAR":"0.00003133600000","DECAY_DATE":null,"TLE_LINE1":"1 45365U 20019F   22086.58717087  .00000177  00000-0  31336-4 0  9991","TLE_LINE2":"2 45365  52.9989 144.9722 0001575  62.0999 298.0148 15.05578489112456","MEAN_ANOMALY":"298.0148","SEMIMAJOR_AXIS":"6927.868","LAUNCH_DATE":"2020-03-18","OBJECT_TYPE":"PAYLOAD","FILE":"3377053","ARG_OF_PERICENTER":"62.0999","OBJECT_ID":"2020-019F","EPOCH":"2022-03-27T14:05:31.563168","RCS_SIZE":"LARGE","NORAD_CAT_ID":"45365","TIME_SYSTEM":"UTC","MEAN_MOTION_DOT":"0.00000177","ELEMENT_SET_NO":"999","MEAN_ELEMENT_THEORY":"SGP4","PERIOD":"95.644","PERIAPSIS":"548.641","RA_OF_ASC_NODE":"144.9722","REF_FRAME":"TEME","ECCENTRICITY":"0.00015750","OBJECT_NAME":"STARLINK-1317","REV_AT_EPOCH":"11245","MEAN_MOTION":"15.05578489","GP_ID":"199860604","INCLINATION":"52.9989","COUNTRY_CODE":"US","CENTER_NAME":"EARTH","CLASSIFICATION_TYPE":"U"},{"REF_FRAME":"TEME","PERIAPSIS":"546.171","RA_OF_ASC_NODE":"163.4893","ECCENTRICITY":"0.00014820","REV_AT_EPOCH":"11227","OBJECT_NAME":"STARLINK-1262","ELEMENT_SET_NO":"999","MEAN_ELEMENT_THEORY":"SGP4","PERIOD":"95.592","MEAN_MOTION_DOT":"0.00000692","CENTER_NAME":"EARTH","COUNTRY_CODE":"US","INCLINATION":"53.0541","MEAN_MOTION":"15.06405137","GP_ID":"199860854","CLASSIFICATION_TYPE":"U","SITE":"AFETR","APOAPSIS":"548.224","EPHEMERIS_TYPE":"0","TLE_LINE2":"2 45366  53.0541 163.4893 0001482  64.0424 296.0718 15.06405137112271","TLE_LINE1":"1 45366U 20019G   22086.91218549  .00000692  00000-0  65326-4 0  9996","MEAN_ANOMALY":"296.0718","SEMIMAJOR_AXIS":"6925.333","BSTAR":"0.00006532600000","DECAY_DATE":null,"MEAN_MOTION_DDOT":"0.0000000000000","FILE":"3377053","ARG_OF_PERICENTER":"64.0424","OBJECT_TYPE":"PAYLOAD","LAUNCH_DATE":"2020-03-18","NORAD_CAT_ID":"45366","TIME_SYSTEM":"UTC","EPOCH":"2022-03-27T21:53:32.826336","RCS_SIZE":"LARGE","OBJECT_ID":"2020-019G"}];
